[{"OBJECT_NAME":"ONEWEB-0101","OBJECT_ID":"2021-025H","EPOCH":"2026-04-17T03:00:25.123392","MEAN_MOTION":13.13470078,"ECCENTRICITY":0.0001745,"INCLINATION":87.8979,"RA_OF_ASC_NODE":332.3898,"ARG_OF_PERICENTER":77.7895,"MEAN_ANOMALY":282.343,"EPHEMERIS_TYPE":0,"CLASSIFICATION_TYPE":"U","NORAD_CAT_ID":48049,"ELEMENT_SET_NO":999,"REV_AT_EPOCH":24548,"BSTAR":-0.00030159,"MEAN_MOTION_DOT":-9.7e-07,"MEAN_MOTION_DDOT":0.0},{"OBJECT_NAME":"ONEWEB-0113","OBJECT_ID":"2021-025J","EPOCH":"2026-04-17T02:15:14.656896","MEAN_MOTION":13.13948734,"ECCENTRICITY":0.0001892,"INCLINATION":87.8987,"RA_OF_ASC_NODE":332.3122,"ARG_OF_PERICENTER":92.7671,"MEAN_ANOMALY":267.3675,"EPHEMERIS_TYPE":0,"CLASSIFICATION_TYPE":"U","NORAD_CAT_ID":48050,"ELEMENT_SET_NO":999,"REV_AT_EPOCH":24558,"BSTAR":-7.0177e-05,"MEAN_MOTION_DOT":-1.3e-07,"MEAN_MOTION_DDOT":0.0},{"OBJECT_NAME":"ONEWEB-0112","OBJECT_ID":"2021-025K","EPOCH":"2026-04-17T02:11:40.521408","MEAN_MOTION":13.13468774,"ECCENTRICITY":0.0001758,"INCLINATION":87.8994,"RA_OF_ASC_NODE":332.3725,"ARG_OF_PERICENTER":74.6553,"MEAN_ANOMALY":285.477,"EPHEMERIS_TYPE":0,"CLASSIFICATION_TYPE":"U","NORAD_CAT_ID":48051,"ELEMENT_SET_NO":999,"REV_AT_EPOCH":24557,"BSTAR":0.00028059,"MEAN_MOTION_DOT":1.15e-06,"MEAN_MOTION_DDOT":0.0},{"OBJECT_NAME":"ONEWEB-0156","OBJECT_ID":"2021-025L","EPOCH":"2026-04-17T02:23:51.702144","MEAN_MOTION":13.13468911,"ECCENTRICITY":0.0001574,"INCLINATION":87.8995,"RA_OF_ASC_NODE":332.3813,"ARG_OF_PERICENTER":81.2959,"MEAN_ANOMALY":278.8348,"EPHEMERIS_TYPE":0,"CLASSIFICATION_TYPE":"U","NORAD_CAT_ID":48052,"ELEMENT_SET_NO":999,"REV_AT_EPOCH":24555,"BSTAR":-0.00036845,"MEAN_MOTION_DOT":-1.22e-06,"MEAN_MOTION_DDOT":0.0},{"OBJECT_NAME":"ONEWEB-0161","OBJECT_ID":"2021-025M","EPOCH":"2026-04-17T03:37:00.066144","MEAN_MOTION":13.13469361,"ECCENTRICITY":0.000159,"INCLINATION":87.8983,"RA_OF_ASC_NODE":332.3773,"ARG_OF_PERICENTER":80.5286,"MEAN_ANOMALY":279.6023,"EPHEMERIS_TYPE":0,"CLASSIFICATION_TYPE":"U","NORAD_CAT_ID":48053,"ELEMENT_SET_NO":999,"REV_AT_EPOCH":24549,"BSTAR":0.00098732,"MEAN_MOTION_DOT":3.73e-06,"MEAN_MOTION_DDOT":0.0},{"OBJECT_NAME":"ONEWEB-0158","OBJECT_ID":"2021-025N","EPOCH":"2026-04-17T02:38:28.776192","MEAN_MOTION":13.13469343,"ECCENTRICITY":0.0002076,"INCLINATION":87.8985,"RA_OF_ASC_NODE":332.3784,"ARG_OF_PERICENTER":85.1342,"MEAN_ANOMALY":275.0024,"EPHEMERIS_TYPE":0,"CLASSIFICATION_TYPE":"U","NORAD_CAT_ID":48054,"ELEMENT_SET_NO":999,"REV_AT_EPOCH":24561,"BSTAR":-0.00087979,"MEAN_MOTION_DOT":-3.09e-06,"MEAN_MOTION_DDOT":0.0},{"OBJECT_NAME":"ONEWEB-0157","OBJECT_ID":"2021-025P","EPOCH":"2026-04-17T03:15:02.761632","MEAN_MOTION":13.13470076,"ECCENTRICITY":0.0001509,"INCLINATION":87.8988,"RA_OF_ASC_NODE":332.3784,"ARG_OF_PERICENTER":70.5711,"MEAN_ANOMALY":289.5581,"EPHEMERIS_TYPE":0,"CLASSIFICATION_TYPE":"U","NORAD_CAT_ID":48055,"ELEMENT_SET_NO":999,"REV_AT_EPOCH":24555,"BSTAR":0.00057899,"MEAN_MOTION_DOT":2.24e-06,"MEAN_MOTION_DDOT":0.0},{"OBJECT_NAME":"ONEWEB-0162","OBJECT_ID":"2021-025Q","EPOCH":"2026-04-17T02:40:43.971456","MEAN_MOTION":13.1347006,"ECCENTRICITY":0.0001576,"INCLINATION":87.8983,"RA_OF_ASC_NODE":332.3869,"ARG_OF_PERICENTER":86.0795,"MEAN_ANOMALY":274.0514,"EPHEMERIS_TYPE":0,"CLASSIFICATION_TYPE":"U","NORAD_CAT_ID":48056,"ELEMENT_SET_NO":999,"REV_AT_EPOCH":24552,"BSTAR":-0.0007178,"MEAN_MOTION_DOT":-2.49e-06,"MEAN_MOTION_DDOT":0.0},{"OBJECT_NAME":"ONEWEB-0155","OBJECT_ID":"2021-025R","EPOCH":"2026-04-17T02:50:40.167744","MEAN_MOTION":13.13469859,"ECCENTRICITY":0.0001761,"INCLINATION":87.8981,"RA_OF_ASC_NODE":332.3822,"ARG_OF_PERICENTER":77.0482,"MEAN_ANOMALY":283.0844,"EPHEMERIS_TYPE":0,"CLASSIFICATION_TYPE":"U","NORAD_CAT_ID":48057,"ELEMENT_SET_NO":999,"REV_AT_EPOCH":24566,"BSTAR":-0.00064174,"MEAN_MOTION_DOT":-2.22e-06,"MEAN_MOTION_DDOT":0.0},{"OBJECT_NAME":"ONEWEB-0149","OBJECT_ID":"2021-025S","EPOCH":"2026-04-17T03:22:20.896032","MEAN_MOTION":13.13483137,"ECCENTRICITY":0.0001533,"INCLINATION":87.8993,"RA_OF_ASC_NODE":332.378,"ARG_OF_PERICENTER":88.6401,"MEAN_ANOMALY":271.4904,"EPHEMERIS_TYPE":0,"CLASSIFICATION_TYPE":"U","NORAD_CAT_ID":48058,"ELEMENT_SET_NO":999,"REV_AT_EPOCH":24547,"BSTAR":0.0045603,"MEAN_MOTION_DOT":1.679e-05,"MEAN_MOTION_DDOT":0.0},{"OBJECT_NAME":"ONEWEB-0148","OBJECT_ID":"2021-025T","EPOCH":"2026-04-17T02:28:44.149728","MEAN_MOTION":13.1346885,"ECCENTRICITY":0.0001108,"INCLINATION":87.8962,"RA_OF_ASC_NODE":332.3939,"ARG_OF_PERICENTER":95.266,"MEAN_ANOMALY":264.8595,"EPHEMERIS_TYPE":0,"CLASSIFICATION_TYPE":"U","NORAD_CAT_ID":48059,"ELEMENT_SET_NO":999,"REV_AT_EPOCH":24559,"BSTAR":-0.00018512999999999998,"MEAN_MOTION_DOT":-5.5e-07,"MEAN_MOTION_DDOT":0.0},{"OBJECT_NAME":"ONEWEB-0160","OBJECT_ID":"2021-025U","EPOCH":"2026-04-17T02:53:06.560448","MEAN_MOTION":13.13469379,"ECCENTRICITY":0.0002334,"INCLINATION":87.898,"RA_OF_ASC_NODE":332.3897,"ARG_OF_PERICENTER":96.0417,"MEAN_ANOMALY":264.0978,"EPHEMERIS_TYPE":0,"CLASSIFICATION_TYPE":"U","NORAD_CAT_ID":48060,"ELEMENT_SET_NO":999,"REV_AT_EPOCH":24554,"BSTAR":-0.0005818,"MEAN_MOTION_DOT":-2e-06,"MEAN_MOTION_DDOT":0.0},{"OBJECT_NAME":"ONEWEB-0163","OBJECT_ID":"2021-025V","EPOCH":"2026-04-17T02:31:09.686208","MEAN_MOTION":13.1346976,"ECCENTRICITY":0.000157,"INCLINATION":87.898,"RA_OF_ASC_NODE":332.3857,"ARG_OF_PERICENTER":73.3213,"MEAN_ANOMALY":286.8089,"EPHEMERIS_TYPE":0,"CLASSIFICATION_TYPE":"U","NORAD_CAT_ID":48061,"ELEMENT_SET_NO":999,"REV_AT_EPOCH":24566,"BSTAR":-0.0006084199999999999,"MEAN_MOTION_DOT":-2.09e-06,"MEAN_MOTION_DDOT":0.0},{"OBJECT_NAME":"ONEWEB-0159","OBJECT_ID":"2021-025W","EPOCH":"2026-04-17T02:18:59.027328","MEAN_MOTION":13.13469385,"ECCENTRICITY":0.0001491,"INCLINATION":87.8992,"RA_OF_ASC_NODE":332.377,"ARG_OF_PERICENTER":78.6581,"MEAN_ANOMALY":281.4716,"EPHEMERIS_TYPE":0,"CLASSIFICATION_TYPE":"U","NORAD_CAT_ID":48062,"ELEMENT_SET_NO":999,"REV_AT_EPOCH":24558,"BSTAR":-0.00011808000000000001,"MEAN_MOTION_DOT":-3e-07,"MEAN_MOTION_DDOT":0.0},{"OBJECT_NAME":"ONEWEB-0164","OBJECT_ID":"2021-025X","EPOCH":"2026-04-17T03:41:52.530144","MEAN_MOTION":13.13469499,"ECCENTRICITY":0.0001767,"INCLINATION":87.8988,"RA_OF_ASC_NODE":332.3721,"ARG_OF_PERICENTER":83.5806,"MEAN_ANOMALY":276.5525,"EPHEMERIS_TYPE":0,"CLASSIFICATION_TYPE":"U","NORAD_CAT_ID":48063,"ELEMENT_SET_NO":999,"REV_AT_EPOCH":24557,"BSTAR":0.0010348,"MEAN_MOTION_DOT":3.91e-06,"MEAN_MOTION_DDOT":0.0},{"OBJECT_NAME":"ONEWEB-0167","OBJECT_ID":"2021-025Y","EPOCH":"2026-04-17T02:32:23.504640","MEAN_MOTION":13.13469325,"ECCENTRICITY":0.0002025,"INCLINATION":87.8976,"RA_OF_ASC_NODE":332.3966,"ARG_OF_PERICENTER":64.9858,"MEAN_ANOMALY":295.1481,"EPHEMERIS_TYPE":0,"CLASSIFICATION_TYPE":"U","NORAD_CAT_ID":48064,"ELEMENT_SET_NO":999,"REV_AT_EPOCH":24555,"BSTAR":-0.00085227,"MEAN_MOTION_DOT":-2.98e-06,"MEAN_MOTION_DDOT":0.0},{"OBJECT_NAME":"ONEWEB-0166","OBJECT_ID":"2021-025Z","EPOCH":"2026-04-17T03:05:18.307104","MEAN_MOTION":13.13470449,"ECCENTRICITY":0.000152,"INCLINATION":87.8991,"RA_OF_ASC_NODE":332.3582,"ARG_OF_PERICENTER":84.314,"MEAN_ANOMALY":275.8163,"EPHEMERIS_TYPE":0,"CLASSIFICATION_TYPE":"U","NORAD_CAT_ID":48065,"ELEMENT_SET_NO":999,"REV_AT_EPOCH":24563,"BSTAR":6.5722e-05,"MEAN_MOTION_DOT":3.7e-07,"MEAN_MOTION_DDOT":0.0},{"OBJECT_NAME":"ONEWEB-0151","OBJECT_ID":"2021-025AA","EPOCH":"2026-04-17T03:07:43.994784","MEAN_MOTION":13.13468462,"ECCENTRICITY":0.0001808,"INCLINATION":87.898,"RA_OF_ASC_NODE":332.3813,"ARG_OF_PERICENTER":79.436,"MEAN_ANOMALY":280.6973,"EPHEMERIS_TYPE":0,"CLASSIFICATION_TYPE":"U","NORAD_CAT_ID":48066,"ELEMENT_SET_NO":999,"REV_AT_EPOCH":24557,"BSTAR":0.00066193,"MEAN_MOTION_DOT":2.54e-06,"MEAN_MOTION_DDOT":0.0},{"OBJECT_NAME":"ONEWEB-0170","OBJECT_ID":"2021-025AB","EPOCH":"2026-04-17T03:19:56.253792","MEAN_MOTION":13.13469875,"ECCENTRICITY":0.0002182,"INCLINATION":87.8978,"RA_OF_ASC_NODE":332.3814,"ARG_OF_PERICENTER":82.3784,"MEAN_ANOMALY":277.7593,"EPHEMERIS_TYPE":0,"CLASSIFICATION_TYPE":"U","NORAD_CAT_ID":48067,"ELEMENT_SET_NO":999,"REV_AT_EPOCH":24553,"BSTAR":0.00058641,"MEAN_MOTION_DOT":2.27e-06,"MEAN_MOTION_DDOT":0.0},{"OBJECT_NAME":"ONEWEB-0168","OBJECT_ID":"2021-025AC","EPOCH":"2026-04-17T02:57:59.393376","MEAN_MOTION":13.13470017,"ECCENTRICITY":0.0001576,"INCLINATION":87.8988,"RA_OF_ASC_NODE":332.3784,"ARG_OF_PERICENTER":78.0796,"MEAN_ANOMALY":282.051,"EPHEMERIS_TYPE":0,"CLASSIFICATION_TYPE":"U","NORAD_CAT_ID":48068,"ELEMENT_SET_NO":999,"REV_AT_EPOCH":24554,"BSTAR":-0.00023272,"MEAN_MOTION_DOT":-7.2e-07,"MEAN_MOTION_DDOT":0.0},{"OBJECT_NAME":"ONEWEB-0173","OBJECT_ID":"2021-025AD","EPOCH":"2026-04-17T02:45:47.564640","MEAN_MOTION":13.13469724,"ECCENTRICITY":0.0001672,"INCLINATION":87.8984,"RA_OF_ASC_NODE":332.3851,"ARG_OF_PERICENTER":69.3924,"MEAN_ANOMALY":290.7385,"EPHEMERIS_TYPE":0,"CLASSIFICATION_TYPE":"U","NORAD_CAT_ID":48069,"ELEMENT_SET_NO":999,"REV_AT_EPOCH":24578,"BSTAR":-0.00083183,"MEAN_MOTION_DOT":-2.91e-06,"MEAN_MOTION_DDOT":0.0},{"OBJECT_NAME":"ONEWEB-0171","OBJECT_ID":"2021-025AE","EPOCH":"2026-04-17T01:49:44.448960","MEAN_MOTION":13.13469429,"ECCENTRICITY":0.0001817,"INCLINATION":87.898,"RA_OF_ASC_NODE":332.4031,"ARG_OF_PERICENTER":81.9429,"MEAN_ANOMALY":278.1906,"EPHEMERIS_TYPE":0,"CLASSIFICATION_TYPE":"U","NORAD_CAT_ID":48070,"ELEMENT_SET_NO":999,"REV_AT_EPOCH":24559,"BSTAR":0.00091239,"MEAN_MOTION_DOT":3.46e-06,"MEAN_MOTION_DDOT":0.0},{"OBJECT_NAME":"ONEWEB-0172","OBJECT_ID":"2021-025AF","EPOCH":"2026-04-17T03:10:10.081632","MEAN_MOTION":13.13470847,"ECCENTRICITY":0.0001774,"INCLINATION":87.8982,"RA_OF_ASC_NODE":332.3795,"ARG_OF_PERICENTER":77.4376,"MEAN_ANOMALY":282.6952,"EPHEMERIS_TYPE":0,"CLASSIFICATION_TYPE":"U","NORAD_CAT_ID":48071,"ELEMENT_SET_NO":999,"REV_AT_EPOCH":24649,"BSTAR":0.00017571999999999998,"MEAN_MOTION_DOT":7.7e-07,"MEAN_MOTION_DDOT":0.0}]